NORAD_CAT_ID,OBJECT_NAME,OBJECT_TYPE,EPOCH,MEAN_MOTION,ECCENTRICITY,INCLINATION,RA_OF_ASC_NODE,ARG_OF_PERICENTER,MEAN_ANOMALY,BSTAR,MEAN_MOTION_DOT,MEAN_MOTION_DDOT,TLE_LINE0,TLE_LINE1,TLE_LINE2,SEMIMAJOR_AXIS,PERIOD,APOGEE,PERIGEE,DECAYED
55291.0,STARLINK-5327,PAYLOAD,2024-05-24 15:04:14,14.98348908,0.0003314,70.0018,233.7116,261.4281,98.6502,0.00025998,3.012e-05,0.0,0 STARLINK-5327,1 55291U 23010Y   24145.62794496  .00003012  00000-0  25998-3 0  9993,2 55291  70.0018 233.7116 0003314 261.4281  98.6502 14.98348908 75295,6950.134,96.106,574.303,569.696,0.0
55291.0,STARLINK-5327,PAYLOAD,2024-05-25 05:29:27,14.98339819,0.0002788,70.0047,232.2026,260.0992,99.9853,0.00017237,1.965e-05,0.0,0 STARLINK-5327,1 55291U 23010Y   24146.22878668  .00001965  00000-0  17237-3 0  9996,2 55291  70.0047 232.2026 0002788 260.0992  99.9853 14.98339819 75079,6950.163,96.106,573.965,570.09,0.0
55291.0,STARLINK-5327,PAYLOAD,2024-05-25 13:30:08,14.98303691,0.0003119,70.0025,231.3563,261.9416,98.1389,-0.0011934,-0.00014294,0.0,0 STARLINK-5327,1 55291U 23010Y   24146.56259405 -.00014294  00000-0 -11934-2 0  9993,2 55291  70.0025 231.3563 0003119 261.9416  98.1389 14.98303691 75121,6950.274,96.109,574.307,569.971,0.0
55291.0,STARLINK-5327,PAYLOAD,2024-05-25 15:06:15,14.98335147,0.000337,70.0012,231.1864,268.5608,91.5165,0.00016682,1.898e-05,0.0,0 STARLINK-5327,1 55291U 23010Y   24146.62934582  .00001898  00000-0  16682-3 0  9996,2 55291  70.0012 231.1864 0003370 268.5608  91.5165 14.98335147 75135,6950.177,96.107,574.384,569.7,0.0
55291.0,STARLINK-5327,PAYLOAD,2024-05-25 23:06:55,14.98306967,0.0004449,70.0024,230.3443,268.6118,91.4531,-0.00096146,-0.00011541,0.0,0 STARLINK-5327,1 55291U 23010Y   24146.96314766 -.00011541  00000-0 -96146-3 0  9990,2 55291  70.0024 230.3443 0004449 268.6118  91.4531 14.98306967 75186,6950.264,96.108,575.221,569.037,0.0
55291.0,STARLINK-5327,PAYLOAD,2024-05-26 13:32:08,14.98335594,0.000313,70.002,228.831,260.8571,99.2234,0.0002284,2.634e-05,0.0,0 STARLINK-5327,1 55291U 23010Y   24147.56398596  .00002634  00000-0  22840-3 0  9991,2 55291  70.0020 228.8310 0003130 260.8571  99.2234 14.98335594 75274,6950.176,96.107,574.216,569.865,0.0
55291.0,STARLINK-5327,PAYLOAD,2024-05-26 15:08:16,14.98335762,0.0003284,70.0014,228.66,268.7117,91.3666,0.00026778,3.104e-05,0.0,0 STARLINK-5327,1 55291U 23010Y   24147.63074620  .00003104  00000-0  26778-3 0  9995,2 55291  70.0014 228.6600 0003284 268.7117  91.3666 14.98335762 75594,6950.175,96.107,574.323,569.758,0.0
55291.0,STARLINK-5327,PAYLOAD,2024-05-27 13:34:09,14.98331607,0.0003126,70.0008,226.3054,265.2714,94.8088,0.00012461,1.394e-05,0.0,0 STARLINK-5327,1 55291U 23010Y   24148.56538722  .00001394  00000-0  12461-3 0  9999,2 55291  70.0008 226.3054 0003126 265.2714  94.8088 14.98331607 75427,6950.188,96.107,574.226,569.88,0.0
55291.0,STARLINK-5327,PAYLOAD,2024-05-27 15:10:17,14.98331649,0.0003137,70.0007,226.137,265.6787,94.4014,0.00011585,1.29e-05,0.0,0 STARLINK-5327,1 55291U 23010Y   24148.63214711  .00001290  00000-0  11585-3 0  9997,2 55291  70.0007 226.1370 0003137 265.6787  94.4014 14.98331649 75747,6950.188,96.107,574.233,569.873,0.0
55291.0,STARLINK-5327,PAYLOAD,2024-05-28 13:36:10,14.98336816,0.0003203,69.9999,223.781,267.7091,92.3701,0.00014855,1.68e-05,0.0,0 STARLINK-5327,1 55291U 23010Y   24149.56678261  .00001680  00000-0  14855-3 0  9990,2 55291  69.9999 223.7810 0003203 267.7091  92.3701 14.98336816 75887,6950.172,96.107,574.263,569.811,0.0
55291.0,STARLINK-5327,PAYLOAD,2024-05-28 15:12:18,14.98337046,0.0003204,69.9999,223.6127,267.8243,92.255,0.00014566,1.646e-05,0.0,0 STARLINK-5327,1 55291U 23010Y   24149.63354215  .00001646  00000-0  14566-3 0  9999,2 55291  69.9999 223.6127 0003204 267.8243  92.2550 14.98337046 75582,6950.171,96.107,574.263,569.809,0.0
55291.0,STARLINK-5327,PAYLOAD,2024-05-29 05:37:30,14.98330531,0.000309,70.0002,222.0974,268.8203,91.2602,0.00011428,1.271e-05,0.0,0 STARLINK-5327,1 55291U 23010Y   24150.23438559  .00001271  00000-0  11428-3 0  9999,2 55291  70.0002 222.0974 0003090 268.8203  91.2602 14.98330531 75672,6950.191,96.107,574.204,569.909,0.0
55291.0,STARLINK-5327,PAYLOAD,2024-05-29 13:38:11,14.98330226,0.0003138,70.0,221.256,267.9662,92.1138,8.3356e-05,9.02e-06,0.0,0 STARLINK-5327,1 55291U 23010Y   24150.56818619  .00000902  00000-0  83356-4 0  9994,2 55291  70.0000 221.2560 0003138 267.9662  92.1138 14.98330226 76030,6950.192,96.107,574.238,569.876,0.0
55291.0,STARLINK-5327,PAYLOAD,2024-05-29 15:14:19,14.98331917,0.0003136,70.0001,221.0874,268.4604,91.6196,7.647e-05,8.2e-06,0.0,0 STARLINK-5327,1 55291U 23010Y   24150.63494584  .00000820  00000-0  76470-4 0  9991,2 55291  70.0001 221.0874 0003136 268.4604  91.6196 14.98331917 76044,6950.187,96.107,574.232,569.872,0.0
55291.0,STARLINK-5327,PAYLOAD,2024-05-30 05:39:31,14.98337542,0.0003196,69.9998,219.5727,267.2043,92.8751,8.8382e-05,9.62e-06,0.0,0 STARLINK-5327,1 55291U 23010Y   24151.23578018  .00000962  00000-0  88382-4 0  9995,2 55291  69.9998 219.5727 0003196 267.2043  92.8751 14.98337542 75820,6950.17,96.107,574.256,569.813,0.0
55291.0,STARLINK-5327,PAYLOAD,2024-05-30 13:40:11,14.98337871,0.0003215,69.9998,218.7311,266.96,93.1191,7.8842e-05,8.48e-06,0.0,0 STARLINK-5327,1 55291U 23010Y   24151.56957901  .00000848  00000-0  78842-4 0  9996,2 55291  69.9998 218.7311 0003215 266.9600  93.1191 14.98337871 76184,6950.169,96.106,574.268,569.799,0.0
55291.0,STARLINK-5327,PAYLOAD,2024-05-30 15:16:19,14.98337952,0.0003251,69.9998,218.5626,264.3124,95.7664,0.00011745,1.309e-05,0.0,0 STARLINK-5327,1 55291U 23010Y   24151.63633745  .00001309  00000-0  11745-3 0  9992,2 55291  69.9998 218.5626 0003251 264.3124  95.7664 14.98337952 76198,6950.168,96.106,574.293,569.774,0.0
55291.0,STARLINK-5327,PAYLOAD,2024-05-31 05:41:32,14.98330949,0.0003194,69.9997,217.0473,264.4922,95.5873,9.507e-05,1.042e-05,0.0,0 STARLINK-5327,1 55291U 23010Y   24152.23718142  .00001042  00000-0  95070-4 0  9992,2 55291  69.9997 217.0473 0003194 264.4922  95.5873 14.98330949 75978,6950.19,96.107,574.275,569.835,0.0
55291.0,STARLINK-5327,PAYLOAD,2024-05-31 13:42:12,14.98332351,0.0003189,69.9996,216.2059,264.1263,95.9533,0.00010074,1.109e-05,0.0,0 STARLINK-5327,1 55291U 23010Y   24152.57098032  .00001109  00000-0  10074-3 0  9992,2 55291  69.9996 216.2059 0003189 264.1263  95.9533 14.98332351 76334,6950.186,96.107,574.267,569.834,0.0
55291.0,STARLINK-5327,PAYLOAD,2024-06-01 05:43:33,14.98332352,0.0003258,69.9995,214.5228,268.5613,91.5173,2.2315e-05,1.73e-06,0.0,0 STARLINK-5327,1 55291U 23010Y   24153.23858104  .00000173  00000-0  22315-4 0  9992,2 55291  69.9995 214.5228 0003258 268.5613  91.5173 14.98332352 76126,6950.186,96.107,574.315,569.786,0.0
55291.0,STARLINK-5327,PAYLOAD,2024-06-01 13:44:13,14.9833181,0.000327,69.9994,213.6814,268.9045,91.174,1.5252e-05,8.9e-07,0.0,0 STARLINK-5327,1 55291U 23010Y   24153.57238115  .00000089  00000-0  15252-4 0  9991,2 55291  69.9994 213.6814 0003270 268.9045  91.1740 14.98331810 76486,6950.187,96.107,574.325,569.78,0.0
55291.0,STARLINK-5327,PAYLOAD,2024-06-02 05:45:34,14.98327316,0.0003354,69.9988,211.9971,269.5019,90.5755,5.8631e-05,6.07e-06,0.0,0 STARLINK-5327,1 55291U 23010Y   24154.23998321  .00000607  00000-0  58631-4 0  9991,2 55291  69.9988 211.9971 0003354 269.5019  90.5755 14.98327316 76277,6950.201,96.107,574.397,569.735,0.0
55291.0,STARLINK-5327,PAYLOAD,2024-06-02 12:10:06,14.98329197,0.0003388,69.9989,211.3237,269.4137,90.6634,2.8788e-05,2.5e-06,0.0,0 STARLINK-5327,1 55291U 23010Y   24154.50702331  .00000250  00000-0  28788-4 0  9999,2 55291  69.9989 211.3237 0003388 269.4137  90.6634 14.98329197 76629,6950.195,96.107,574.415,569.706,0.0
55291.0,STARLINK-5327,PAYLOAD,2024-06-03 05:47:35,14.98331483,0.000338,69.999,209.4721,269.5433,90.5339,8.2458e-05,8.91e-06,0.0,0 STARLINK-5327,1 55291U 23010Y   24155.24138153  .00000891  00000-0  82458-4 0  9991,2 55291  69.9990 209.4721 0003380 269.5433  90.5339 14.98331483 76429,6950.188,96.107,574.402,569.704,0.0
55291.0,STARLINK-5327,PAYLOAD,2024-06-03 12:12:07,14.98333413,0.000337,69.999,208.7988,269.5611,90.5162,0.00010062,1.108e-05,0.0,0 STARLINK-5327,1 55291U 23010Y   24155.50842000  .00001108  00000-0  10062-3 0  9996,2 55291  69.9990 208.7988 0003370 269.5611  90.5162 14.98333413 76770,6950.182,96.107,574.39,569.705,0.0
55291.0,STARLINK-5327,PAYLOAD,2024-06-04 10:38:00,14.98337042,0.0003366,69.999,206.4428,268.6036,91.4738,0.00014234,1.606e-05,0.0,0 STARLINK-5327,1 55291U 23010Y   24156.44305563  .00001606  00000-0  14234-3 0  9996,2 55291  69.9990 206.4428 0003366 268.6036  91.4738 14.98337042 76603,6950.171,96.107,574.376,569.697,0.0
55291.0,STARLINK-5327,PAYLOAD,2024-06-04 20:14:48,14.98336592,0.0003392,69.9989,205.4324,269.4695,90.6075,0.00011869,1.324e-05,0.0,0 STARLINK-5327,1 55291U 23010Y   24156.84361508  .00001324  00000-0  11869-3 0  9999,2 55291  69.9989 205.4324 0003392 269.4695  90.6075 14.98336592 76978,6950.173,96.107,574.395,569.68,0.0
55291.0,STARLINK-5327,PAYLOAD,2024-06-05 04:15:28,14.98333021,0.0003164,69.9994,204.5915,267.6309,92.4487,5.0698e-05,5.12e-06,0.0,0 STARLINK-5327,1 55291U 23010Y   24157.17741813  .00000512  00000-0  50698-4 0  9999,2 55291  69.9994 204.5915 0003164 267.6309  92.4487 14.98333021 76712,6950.184,96.107,574.248,569.85,0.0
55291.0,STARLINK-5327,PAYLOAD,2024-06-05 12:16:09,14.98330584,0.0003273,69.9992,203.75,266.466,93.6124,8.9797e-06,1.4e-07,0.0,0 STARLINK-5327,1 55291U 23010Y   24157.51121996  .00000014  00000-0  89797-5 0  9991,2 55291  69.9992 203.7500 0003273 266.4660  93.6124 14.98330584 77071,6950.191,96.107,574.331,569.781,0.0
55291.0,STARLINK-5327,PAYLOAD,2024-06-05 20:16:49,14.98332508,0.0003346,69.9991,202.9085,265.7537,94.324,-2.8769e-06,-1.27e-06,0.0,0 STARLINK-5327,1 55291U 23010Y   24157.84501831 -.00000127  00000-0 -28769-5 0  9996,2 55291  69.9991 202.9085 0003346 265.7537  94.3240 14.98332508 77126,6950.185,96.107,574.376,569.725,0.0
